{
  "type": "FeatureCollection",
  "features": [
    {
      "type": "Feature",
      "properties": {
        "norad_id": 35441,
        "name": "COSMOS 2251 DEB",
        "group": "cosmos-2251-debris",
        "lat": -55.80110380491087,
        "lon": 156.0349737001253,
        "alt_km": 668.844915620477,
        "timestamp": "2025-12-05T19:30:25.963135+00:00",
        "meta_object_name": "COSMOS 2251 DEB",
        "meta_object_id": "1993-036AKK",
        "meta_epoch": "2025-12-02T14:53:24.205920",
        "meta_mean_motion": 14.6231334,
        "meta_eccentricity": 0.00376111,
        "meta_inclination": 74.1347,
        "meta_ra_of_asc_node": 317.3711,
        "meta_arg_of_pericenter": 217.6417,
        "meta_mean_anomaly": 142.2119,
        "meta_ephemeris_type": 0,
        "meta_classification_type": "U",
        "meta_norad_cat_id": 35441,
        "meta_element_set_no": 999,
        "meta_rev_at_epoch": 87282,
        "meta_bstar": 0.002198223,
        "meta_mean_motion_dot": 0.000112,
        "meta_mean_motion_ddot": 0,
        "tle_line1": "1 35441U 93036AKK 25336.62041905  .00011200  00000+0  21982-2 0  9991",
        "tle_line2": "2 35441  74.1347 317.3711 0037611 217.6417 142.2119 14.62313340872828"
      },
      "geometry": {
        "type": "Point",
        "coordinates": [
          156.0349737001253,
          -55.80110380491087
        ]
      }
    },
    {
      "type": "Feature",
      "properties": {
        "norad_id": 35442,
        "name": "COSMOS 2251 DEB",
        "group": "cosmos-2251-debris",
        "lat": -56.395590886516295,
        "lon": 87.3455629065743,
        "alt_km": 626.7820227348075,
        "timestamp": "2025-12-05T19:30:25.963146+00:00",
        "meta_object_name": "COSMOS 2251 DEB",
        "meta_object_id": "1993-036AKL",
        "meta_epoch": "2025-12-03T15:59:55.163616",
        "meta_mean_motion": 14.83772489,
        "meta_eccentricity": 0.00044741,
        "meta_inclination": 74.0258,
        "meta_ra_of_asc_node": 117.135,
        "meta_arg_of_pericenter": 128.1598,
        "meta_mean_anomaly": 231.9984,
        "meta_ephemeris_type": 0,
        "meta_classification_type": "U",
        "meta_norad_cat_id": 35442,
        "meta_element_set_no": 999,
        "meta_rev_at_epoch": 87218,
        "meta_bstar": 0.004565269,
        "meta_mean_motion_dot": 0.00037992,
        "meta_mean_motion_ddot": 0,
        "tle_line1": "1 35442U 93036AKL 25337.66661069  .00037992  00000+0  45653-2 0  9993",
        "tle_line2": "2 35442  74.0258 117.1350 0004474 128.1598 231.9984 14.83772489872182"
      },
      "geometry": {
        "type": "Point",
        "coordinates": [
          87.3455629065743,
          -56.395590886516295
        ]
      }
    },
    {
      "type": "Feature",
      "properties": {
        "norad_id": 35443,
        "name": "COSMOS 2251 DEB",
        "group": "cosmos-2251-debris",
        "lat": 30.11380660009633,
        "lon": -4.773693960303502,
        "alt_km": 585.3099427231446,
        "timestamp": "2025-12-05T19:30:25.963156+00:00",
        "meta_object_name": "COSMOS 2251 DEB",
        "meta_object_id": "1993-036AKM",
        "meta_epoch": "2025-12-03T11:10:41.919744",
        "meta_mean_motion": 14.95510344,
        "meta_eccentricity": 0.0073868,
        "meta_inclination": 73.9866,
        "meta_ra_of_asc_node": 350.3879,
        "meta_arg_of_pericenter": 135.256,
        "meta_mean_anomaly": 225.4616,
        "meta_ephemeris_type": 0,
        "meta_classification_type": "U",
        "meta_norad_cat_id": 35443,
        "meta_element_set_no": 999,
        "meta_rev_at_epoch": 86739,
        "meta_bstar": 0.0041144703,
        "meta_mean_motion_dot": 0.00048434,
        "meta_mean_motion_ddot": 0,
        "tle_line1": "1 35443U 93036AKM 25337.46576296  .00048434  00000+0  41145-2 0  9994",
        "tle_line2": "2 35443  73.9866 350.3879 0073868 135.2560 225.4616 14.95510344867394"
      },
      "geometry": {
        "type": "Point",
        "coordinates": [
          -4.773693960303502,
          30.11380660009633
        ]
      }
    },
    {
      "type": "Feature",
      "properties": {
        "norad_id": 35445,
        "name": "COSMOS 2251 DEB",
        "group": "cosmos-2251-debris",
        "lat": -73.67707494955002,
        "lon": -124.61308035663288,
        "alt_km": 766.0234059945697,
        "timestamp": "2025-12-05T19:30:25.963167+00:00",
        "meta_object_name": "COSMOS 2251 DEB",
        "meta_object_id": "1993-036AKP",
        "meta_epoch": "2025-12-01T05:37:58.814400",
        "meta_mean_motion": 14.58784895,
        "meta_eccentricity": 0.0143608,
        "meta_inclination": 74.0353,
        "meta_ra_of_asc_node": 321.9314,
        "meta_arg_of_pericenter": 51.7494,
        "meta_mean_anomaly": 309.6492,
        "meta_ephemeris_type": 0,
        "meta_classification_type": "U",
        "meta_norad_cat_id": 35445,
        "meta_element_set_no": 999,
        "meta_rev_at_epoch": 87161,
        "meta_bstar": 0.0018521,
        "meta_mean_motion_dot": 9.974e-05,
        "meta_mean_motion_ddot": 0,
        "tle_line1": "1 35445U 93036AKP 25335.23470850  .00009974  00000+0  18521-2 0  9996",
        "tle_line2": "2 35445  74.0353 321.9314 0143608  51.7494 309.6492 14.58784895871615"
      },
      "geometry": {
        "type": "Point",
        "coordinates": [
          -124.61308035663288,
          -73.67707494955002
        ]
      }
    },
    {
      "type": "Feature",
      "properties": {
        "norad_id": 35446,
        "name": "COSMOS 2251 DEB",
        "group": "cosmos-2251-debris",
        "lat": 56.82260541293603,
        "lon": -2.7706999962838665,
        "alt_km": 659.5357585074516,
        "timestamp": "2025-12-05T19:30:25.963178+00:00",
        "meta_object_name": "COSMOS 2251 DEB",
        "meta_object_id": "1993-036AKQ",
        "meta_epoch": "2025-11-30T07:11:01.736160",
        "meta_mean_motion": 14.5460995,
        "meta_eccentricity": 0.00744354,
        "meta_inclination": 74.0466,
        "meta_ra_of_asc_node": 341.7043,
        "meta_arg_of_pericenter": 103.5149,
        "meta_mean_anomaly": 257.4321,
        "meta_ephemeris_type": 0,
        "meta_classification_type": "U",
        "meta_norad_cat_id": 35446,
        "meta_element_set_no": 999,
        "meta_rev_at_epoch": 87827,
        "meta_bstar": 0.00010353473,
        "meta_mean_motion_dot": 4.29e-06,
        "meta_mean_motion_ddot": 0,
        "tle_line1": "1 35446U 93036AKQ 25334.29932565  .00000429  00000+0  10353-3 0  9990",
        "tle_line2": "2 35446  74.0466 341.7043 0074435 103.5149 257.4321 14.54609950878278"
      },
      "geometry": {
        "type": "Point",
        "coordinates": [
          -2.7706999962838665,
          56.82260541293603
        ]
      }
    },
    {
      "type": "Feature",
      "properties": {
        "norad_id": 35448,
        "name": "COSMOS 2251 DEB",
        "group": "cosmos-2251-debris",
        "lat": -64.62260499377223,
        "lon": 65.21094179743254,
        "alt_km": 711.0849955651211,
        "timestamp": "2025-12-05T19:30:25.963188+00:00",
        "meta_object_name": "COSMOS 2251 DEB",
        "meta_object_id": "1993-036AKS",
        "meta_epoch": "2025-12-04T00:53:58.501824",
        "meta_mean_motion": 14.5413126,
        "meta_eccentricity": 0.00111642,
        "meta_inclination": 73.9026,
        "meta_ra_of_asc_node": 106.0942,
        "meta_arg_of_pericenter": 285.9815,
        "meta_mean_anomaly": 74.0116,
        "meta_ephemeris_type": 0,
        "meta_classification_type": "U",
        "meta_norad_cat_id": 35448,
        "meta_element_set_no": 999,
        "meta_rev_at_epoch": 87208,
        "meta_bstar": 0.0023041751,
        "meta_mean_motion_dot": 9.734e-05,
        "meta_mean_motion_ddot": 0,
        "tle_line1": "1 35448U 93036AKS 25338.03748266  .00009734  00000+0  23042-2 0  9997",
        "tle_line2": "2 35448  73.9026 106.0942 0011164 285.9815  74.0116 14.54131260872087"
      },
      "geometry": {
        "type": "Point",
        "coordinates": [
          65.21094179743254,
          -64.62260499377223
        ]
      }
    },
    {
      "type": "Feature",
      "properties": {
        "norad_id": 35451,
        "name": "COSMOS 2251 DEB",
        "group": "cosmos-2251-debris",
        "lat": 72.51127686724894,
        "lon": -128.5675855290038,
        "alt_km": 456.07664245736487,
        "timestamp": "2025-12-05T19:30:25.963198+00:00",
        "meta_object_name": "COSMOS 2251 DEB",
        "meta_object_id": "1993-036AKV",
        "meta_epoch": "2025-12-02T09:42:30.995424",
        "meta_mean_motion": 15.34019463,
        "meta_eccentricity": 0.00397741,
        "meta_inclination": 73.9303,
        "meta_ra_of_asc_node": 124.9673,
        "meta_arg_of_pericenter": 13.4643,
        "meta_mean_anomaly": 346.7612,
        "meta_ephemeris_type": 0,
        "meta_classification_type": "U",
        "meta_norad_cat_id": 35451,
        "meta_element_set_no": 999,
        "meta_rev_at_epoch": 67247,
        "meta_bstar": 0.0016761251,
        "meta_mean_motion_dot": 0.00056987,
        "meta_mean_motion_ddot": 0,
        "tle_line1": "1 35451U 93036AKV 25336.40452541  .00056987  00000+0  16761-2 0  9990",
        "tle_line2": "2 35451  73.9303 124.9673 0039774  13.4643 346.7612 15.34019463672479"
      },
      "geometry": {
        "type": "Point",
        "coordinates": [
          -128.5675855290038,
          72.51127686724894
        ]
      }
    }
  ]
}